{
  "type": "FeatureCollection",
  "metadata": {
    "source": "Prototype / Demonstration Subsurface Dataset",
    "description": "Subterranean utility infrastructure network with depth profiles."
  },
  "features": [
    {
      "type": "Feature",
      "properties": {
        "id": "UTL-W001",
        "parcel_id": "P001",
        "utility_type": "Water Pipeline",
        "asset_id": "WP-2024-001",
        "depth_m": 2.5,
        "length_m": 45.0,
        "status": "active",
        "conflict_status": "none",
        "metadata": {
          "diameter_mm": 200,
          "material": "PVC",
          "pressure": "medium"
        }
      },
      "geometry": {
        "type": "LineString",
        "coordinates": [
          [
            80.2565,
            13.0068
          ],
          [
            80.2575,
            13.0068
          ]
        ]
      }
    },
    {
      "type": "Feature",
      "properties": {
        "id": "UTL-S001",
        "parcel_id": "P001",
        "utility_type": "Sewer Line",
        "asset_id": "SL-2024-001",
        "depth_m": 3.5,
        "length_m": 50.0,
        "status": "active",
        "conflict_status": "none",
        "metadata": {
          "diameter_mm": 300,
          "material": "Concrete"
        }
      },
      "geometry": {
        "type": "LineString",
        "coordinates": [
          [
            80.2565,
            13.0066
          ],
          [
            80.2575,
            13.0066
          ]
        ]
      }
    },
    {
      "type": "Feature",
      "properties": {
        "id": "UTL-E001",
        "parcel_id": "P002",
        "utility_type": "Electrical Cable",
        "asset_id": "EC-2024-001",
        "depth_m": 1.0,
        "length_m": 60.0,
        "status": "active",
        "conflict_status": "warning",
        "metadata": {
          "voltage_kv": 11,
          "type": "HT Feeder Cable"
        }
      },
      "geometry": {
        "type": "LineString",
        "coordinates": [
          [
            80.2577,
            13.0076
          ],
          [
            80.2585,
            13.0076
          ]
        ]
      }
    },
    {
      "type": "Feature",
      "properties": {
        "id": "UTL-C001",
        "parcel_id": "P003",
        "utility_type": "Communication Cable",
        "asset_id": "CC-2024-001",
        "depth_m": 0.8,
        "length_m": 80.0,
        "status": "active",
        "conflict_status": "none",
        "metadata": {
          "type": "Optical Fiber",
          "bandwidth": "10Gbps"
        }
      },
      "geometry": {
        "type": "LineString",
        "coordinates": [
          [
            80.2574,
            13.0035
          ],
          [
            80.2586,
            13.0035
          ]
        ]
      }
    },
    {
      "type": "Feature",
      "properties": {
        "id": "UTL-W002",
        "parcel_id": "P004",
        "utility_type": "Water Pipeline",
        "asset_id": "WP-2024-002",
        "depth_m": 3.0,
        "length_m": 35.0,
        "status": "active",
        "conflict_status": "conflict",
        "metadata": {
          "diameter_mm": 150,
          "material": "DI",
          "note": "Intersects property boundary"
        }
      },
      "geometry": {
        "type": "LineString",
        "coordinates": [
          [
            80.254,
            13.0112
          ],
          [
            80.255,
            13.0112
          ]
        ]
      }
    }
  ]
}